H1 CPF 01  gfz 2022 07 21 00  7021 terrasarx 
H2 0702601  6201 31698    2022 07 21 00 59 42 2022 07 26 00 00 42   120 1 1  0 0 0
H9
10 0 59784   9342.000000  0   -1322571.411  -2938908.393  -6095213.678
10 0 59784   9462.000000  0   -1888170.127  -3497224.377  -5633723.541
10 0 59784   9582.000000  0   -2430151.694  -3985149.812  -5073755.277
10 0 59784   9702.000000  0   -2937764.197  -4394652.876  -4425007.935
10 0 59784   9822.000000  0   -3400703.960  -4719227.910  -3698750.055
10 0 59784   9942.000000  0   -3809325.620  -4954006.131  -2907632.727
10 0 59784  10062.000000  0   -4154845.497  -5095836.493  -2065475.440
10 0 59784  10182.000000  0   -4429533.044  -5143333.627  -1187027.007
10 0 59784  10302.000000  0   -4626885.062  -5096891.246   -287705.698
10 0 59784  10422.000000  0   -4741777.866  -4958660.085    616676.436
10 0 59784  10542.000000  0   -4770593.375  -4732490.086   1510199.682
10 0 59784  10662.000000  0   -4711314.756  -4423836.982   2377126.664
10 0 59784  10782.000000  0   -4563589.196  -4039636.406   3202188.247
10 0 59784  10902.000000  0   -4328757.017  -3588149.273   3970859.548
10 0 59784  11022.000000  0   -4009846.092  -3078782.230   4669621.148
10 0 59784  11142.000000  0   -3611531.137  -2521887.161   5286198.354
10 0 59784  11262.000000  0   -3140061.381  -1928547.233   5809774.397
10 0 59784  11382.000000  0   -2603158.071  -1310353.880   6231177.151
10 0 59784  11502.000000  0   -2009882.958   -679177.222   6543035.926
10 0 59784  11622.000000  0   -1370479.896    -46935.280   6739904.137
10 0 59784  11742.000000  0    -696195.017    574630.138   6818346.651
10 0 59784  11862.000000  0        920.883   1174170.122   6776996.142
10 0 59784  11982.000000  0     708227.254   1740935.457   6616575.760
10 0 59784  12102.000000  0    1412722.555   2264969.521   6339887.070
10 0 59784  12222.000000  0    2101282.298   2737283.003   5951763.553
10 0 59784  12342.000000  0    2760903.148   3150009.384   5458992.210
10 0 59784  12462.000000  0    3378950.770   3496539.517   4870201.687
10 0 59784  12582.000000  0    3943404.945   3771630.951   4195715.216
10 0 59784  12702.000000  0    4443096.040   3971490.212   3447375.931
10 0 59784  12822.000000  0    4867934.561   4093828.940   2638341.481
10 0 59784  12942.000000  0    5209119.377   4137886.878   1782850.003
10 0 59784  13062.000000  0    5459324.938   4104424.656    895966.461
10 0 59784  13182.000000  0    5612860.531   3995685.032     -6689.839
10 0 59784  13302.000000  0    5665797.096   3815323.394   -909229.390
10 0 59784  13422.000000  0    5616058.382   3568309.297  -1795780.815
10 0 59784  13542.000000  0    5463474.694   3260801.666  -2650777.777
10 0 59784  13662.000000  0    5209797.923   2900001.646  -3459237.406
10 0 59784  13782.000000  0    4858679.467   2493987.575  -4207025.514
10 0 59784  13902.000000  0    4415609.924   2051534.849  -4881104.354
10 0 59784  14022.000000  0    3887822.955   1581925.403  -5469754.363
10 0 59784  14142.000000  0    3284168.386   1094753.772  -5962769.533
10 0 59784  14262.000000  0    2614956.221    599732.631  -6351624.550
10 0 59784  14382.000000  0    1891775.190    106501.775  -6629610.279
10 0 59784  14502.000000  0    1127291.565   -375555.403  -6791938.478
10 0 59784  14622.000000  0     335028.898   -837486.567  -6835817.045
10 0 59784  14742.000000  0    -470867.939  -1270932.356  -6760491.157
10 0 59784  14862.000000  0   -1275878.477  -1668273.084  -6567254.561
10 0 59784  14982.000000  0   -2065362.335  -2022759.901  -6259430.665
10 0 59784  15102.000000  0   -2824819.750  -2328627.926  -5842320.818
10 0 59784  15222.000000  0   -3540152.801  -2581189.692  -5323122.929
10 0 59784  15342.000000  0   -4197926.933  -2776908.979  -4710819.745
10 0 59784  15462.000000  0   -4785626.331  -2913452.067  -4016034.180
10 0 59784  15582.000000  0   -5291897.291  -2989715.087  -3250854.927
10 0 59784  15702.000000  0   -5706775.810  -3005827.025  -2428633.588
10 0 59784  15822.000000  0   -6021893.057  -2963127.410  -1563755.259
10 0 59784  15942.000000  0   -6230653.152  -2864119.086   -671387.009
10 0 59784  16062.000000  0   -6328378.717  -2712396.368    232791.803
10 0 59784  16182.000000  0   -6312419.922  -2512550.238   1132871.348
10 0 59784  16302.000000  0   -6182223.443  -2270052.823   2013000.793
10 0 59784  16422.000000  0   -5939357.008  -1991123.421   2857677.123
10 0 59784  16542.000000  0   -5587492.352  -1682580.289   3652025.463
10 0 59784  16662.000000  0   -5132345.485  -1351681.818   4382068.772
10 0 59784  16782.000000  0   -4581574.182  -1005960.620   5034976.333
10 0 59784  16902.000000  0   -3944640.759   -653056.518   5599287.655
10 0 59784  17022.000000  0   -3232641.727   -300551.126   6065111.777
10 0 59784  17142.000000  0   -2458105.965     44193.098   6424296.565
10 0 59784  17262.000000  0   -1634767.104    374183.918   6670564.924
10 0 59784  17382.000000  0    -777316.010    682938.200   6799618.060
10 0 59784  17502.000000  0      98862.519    964607.688   6809205.410
10 0 59784  17622.000000  0     977965.132   1214088.745   6699161.050
10 0 59784  17742.000000  0    1844053.912   1427114.980   6471406.529
10 0 59784  17862.000000  0    2681344.346   1600330.434   6129919.142
10 0 59784  17982.000000  0    3474493.293   1731342.508   5680667.592
10 0 59784  18102.000000  0    4208883.139   1818753.870   5131512.985
10 0 59784  18222.000000  0    4870894.451   1862173.201   4492077.508
10 0 59784  18342.000000  0    5448166.359   1862205.219   3773583.232
10 0 59784  18462.000000  0    5929838.035   1820418.048   2988656.373
10 0 59784  18582.000000  0    6306760.291   1739289.559   2151105.374
10 0 59784  18702.000000  0    6571679.646   1622133.684   1275676.435
10 0 59784  18822.000000  0    6719384.653   1473008.039    377787.228
10 0 59784  18942.000000  0    6746812.439   1296605.926   -526751.888
10 0 59784  19062.000000  0    6653112.169   1098134.748  -1422026.124
10 0 59784  19182.000000  0    6439662.809    883182.952  -2292303.962
10 0 59784  19302.000000  0    6110047.610    657580.221  -3122320.375
10 0 59784  19422.000000  0    5669984.084    427255.372  -3897549.116
10 0 59784  19542.000000  0    5127212.572    198094.615  -4604458.367
10 0 59784  19662.000000  0    4491346.256    -24196.518  -5230743.270
10 0 59784  19782.000000  0    3773689.528   -234223.419  -5765532.300
10 0 59784  19902.000000  0    2987028.600   -427022.606  -6199567.129
10 0 59784  20022.000000  0    2145396.817   -598169.898  -6525352.520
10 0 59784  20142.000000  0    1263822.171   -743874.045  -6737273.341
10 0 59784  20262.000000  0     358061.212   -861055.233  -6831682.458
10 0 59784  20382.000000  0    -555678.948   -947405.840  -6806956.369
10 0 59784  20502.000000  0   -1461023.516  -1001433.805  -6663519.600
10 0 59784  20622.000000  0   -2341717.031  -1022487.813  -6403838.691
10 0 59784  20742.000000  0   -3181908.749  -1010763.807  -6032383.002
10 0 59784  20862.000000  0   -3966431.966   -967293.246  -5555556.700
10 0 59784  20982.000000  0   -4681077.980   -893912.972  -4981600.139
10 0 59784  21102.000000  0   -5312856.558   -793216.735  -4320458.450
10 0 59784  21222.000000  0   -5850238.719   -668489.843  -3583620.455
10 0 59784  21342.000000  0   -6283378.011   -523627.108  -2783927.913
10 0 59784  21462.000000  0   -6604303.118   -363035.524  -1935356.876
10 0 59784  21582.000000  0   -6807077.900   -191524.843  -1052775.705
10 0 59784  21702.000000  0   -6887924.577    -14186.525   -151681.132
10 0 59784  21822.000000  0   -6845301.480    163734.947    752080.613
10 0 59784  21942.000000  0   -6679938.113    336974.727   1642599.117
10 0 59784  22062.000000  0   -6394825.214    500380.898   2504189.032
10 0 59784  22182.000000  0   -5995158.434    649045.320   3321675.606
10 0 59784  22302.000000  0   -5488236.905    778428.693   4080669.553
10 0 59784  22422.000000  0   -4883320.577    884476.265   4767824.442
10 0 59784  22542.000000  0   -4191450.643    963721.334   5371072.318
10 0 59784  22662.000000  0   -3425238.502   1013374.401   5879833.247
10 0 59784  22782.000000  0   -2598627.619   1031396.001   6285197.482
10 0 59784  22902.000000  0   -1726632.648   1016551.866   6580076.902
10 0 59784  23022.000000  0    -825060.848    968449.890   6759322.358
10 0 59784  23142.000000  0      89776.189    887557.312   6819806.780
10 0 59784  23262.000000  0    1001356.936    775198.302   6760475.796
10 0 59784  23382.000000  0    1893246.913    633532.437   6582364.939
10 0 59784  23502.000000  0    2749393.697    465514.027   6288583.017
10 0 59784  23622.000000  0    3554416.268    274832.773   5884262.313
10 0 59784  23742.000000  0    4293884.060     65836.445   5376474.079
10 0 59784  23862.000000  0    4954579.970   -156562.973   4774110.848
10 0 59784  23982.000000  0    5524743.323   -386998.064   4087736.475
10 0 59784  24102.000000  0    5994288.556   -619767.397   3329405.602
10 0 59784  24222.000000  0    6354994.613   -848967.099   2512453.581
10 0 59784  24342.000000  0    6600658.627  -1068629.497   1651259.535
10 0 59784  24462.000000  0    6727209.423  -1272865.576    760989.188
10 0 59784  24582.000000  0    6732781.480  -1456008.440   -142678.103
10 0 59784  24702.000000  0    6617743.611  -1612753.599  -1043835.474
10 0 59784  24822.000000  0    6384681.100  -1738291.387  -1926637.233
10 0 59784  24942.000000  0    6038333.948  -1828429.327  -2775585.776
10 0 59784  25062.000000  0    5585491.816  -1879700.869  -3575808.830
10 0 59784  25182.000000  0    5034850.491  -1889457.941  -4313321.660
10 0 59784  25302.000000  0    4396834.210  -1855945.189  -4975269.963
10 0 59784  25422.000000  0    3683387.438  -1778355.221  -5550149.244
10 0 59784  25542.000000  0    2907741.586  -1656863.412  -6027995.853
10 0 59784  25662.000000  0    2084164.528  -1492641.388  -6400548.451
10 0 59784  25782.000000  0    1227696.352  -1287849.495  -6661380.892
99
